ONEWEB-0589             
1 54655C 22166P   23178.57587220  .00009993  00000-0  24227-1 0  1786
2 54655  87.9238 100.1635 0003137  89.2602 353.8498 13.21813052    18
ONEWEB-0590             
1 54656C 22166Q   23178.51508519 -.00001348  00000-0 -32689-2 0  1785
2 54656  87.9251 100.1737 0001828  84.9679 309.0191 13.21822334    14
ONEWEB-0591             
1 54657C 22166R   23178.31581433 -.00000960  00000-0 -23284-2 0  1780
2 54657  87.9245 100.2174 0002194  83.7820  22.5973 13.21827281    17
ONEWEB-0592             
1 54658C 22166S   23178.46927500 -.00002126  00000-0 -51550-2 0  1789
2 54658  87.9318 100.1717 0002273  86.3796  19.7103 13.21827997    17
ONEWEB-0593             
1 54659C 22166T   23178.47727269 -.00000353  00000-0 -85556-3 0  1785
2 54659  87.9240 100.1806 0002339  83.7325 310.4894 13.21824024    19
ONEWEB-0594             
1 54660C 22166U   23178.57204120  .00001556  00000-0  37736-2 0  1784
2 54660  87.9310 100.1434 0002051  73.8992 320.9944 13.21820053    17
ONEWEB-0595             
1 54661C 22166V   23178.47310602 -.00000530  00000-0 -12837-2 0  1785
2 54661  87.9237 100.1767 0001877  78.7553 315.5850 13.21826736    17
ONEWEB-0596             
1 54662C 22166W   23178.52305972 -.00001783  00000-0 -43237-2 0  1785
2 54662  87.9194 100.1678 0002362  89.4824 302.5317 13.21825338    12
ONEWEB-0597             
1 54663C 22166X   23178.29322174 -.00000328  00000-0 -79450-3 0  1784
2 54663  87.9182 100.2145 0002490  80.5459  28.3783 13.21823738    10
ONEWEB-0600             
1 54664C 22166Y   23178.56160139  .00001925  00000-0  46670-2 0  1785
2 54664  87.9240 100.2039 0002333  79.1383 316.1552 13.21819940    16
ONEWEB-0601             
1 54665C 22166Z   23178.48522405 -.00000200  00000-0 -48572-3 0  1786
2 54665  87.9235 100.1735 0002354  91.6130 335.4956 13.21821297    15
ONEWEB-0602             
1 54666C 22166AA  23178.30952961 -.00001098  00000-0 -26615-2 0  1781
2 54666  87.9341 100.2110 0002312  83.5540  22.8587 13.21829437    12
ONEWEB-0603             
1 54667C 22166AB  23178.31371942 -.00001026  00000-0 -24862-2 0  1780
2 54667  87.9177 100.2113 0002692  81.9615  24.4032 13.21830295    16
ONEWEB-0604             
1 54668C 22166AC  23178.37722637 -.00002912  00000-0 -70599-2 0  1781
2 54668  87.9342 100.1959 0002770  77.3293  31.0115 13.21830146    17
ONEWEB-0605             
1 54669C 22166AD  23178.37097639 -.00002585  00000-0 -62671-2 0  1787
2 54669  87.9193 100.2464 0002428  92.4723  16.1224 13.21829727    18
ONEWEB-0606             
1 54670C 22166AE  23178.53417081 -.00000356  00000-0 -86255-3 0  1783
2 54670  87.9274 100.1519 0001764  78.6056 341.2094 13.21836824    10
ONEWEB-0607             
1 54671C 22166AF  23178.42934442 -.00001898  00000-0 -46013-2 0  1786
2 54671  87.9323 100.1750 0002387  83.1626   3.0896 13.21829198    18
ONEWEB-0608             
1 54672C 22166AG  23178.36477266 -.00004804  00000-0 -11646-1 0  1789
2 54672  87.9178 100.2312 0002658  90.4754  18.6979 13.21829162    11
ONEWEB-0610             
1 54673C 22166AH  23178.27343007  .00002001  00000-0  48516-2 0  1787
2 54673  87.9165 100.2490 0002698  88.4243  36.3064 13.21826656    16
ONEWEB-0611             
1 54674C 22166AJ  23178.41507359 -.00001262  00000-0 -30585-2 0  1783
2 54674  87.9240 100.1910 0001701  67.7000  40.6198 13.21829456    19
ONEWEB-0612             
1 54675C 22166AK  23178.42794398 -.00001540  00000-0 -37342-2 0  1783
2 54675  87.9229 100.1879 0002338  92.1535  17.3784 13.21824821    16
ONEWEB-0615             
1 54676C 22166AL  23178.54426343  .00001171  00000-0  28399-2 0  1789
2 54676  87.9248 100.1647 0002392  79.2307 313.4970 13.21826956    12
ONEWEB-0655             
1 54677C 22166AM  23178.38348794 -.00002974  00000-0 -72107-2 0  1785
2 54677  87.9251 100.2026 0002195  83.4323  24.6620 13.21831895    16
ONEWEB-0659             
1 54678C 22166AN  23178.54702961  .00000607  00000-0  14724-2 0  1784
2 54678  87.9245 100.2175 0001714  82.8603   3.1549 13.21823558    14
ONEWEB-0685             
1 54679C 22166AP  23178.32692544 -.00000505  00000-0 -12235-2 0  1780
2 54679  87.9246 100.2102 0003064  77.8980  31.2667 13.21826671    10
ONEWEB-0712             
1 54680C 22166AQ  23178.58764303  .00003297  00000-0  71391-2 0  1780
2 54680  87.9395  84.9384 0002056  82.8365 340.1551 13.29369292    13
ONEWEB-0714             
1 54681C 22166AR  23178.33108053 -.00000323  00000-0 -78245-3 0  1783
2 54681  87.9239 100.2067 0002459  78.7154  30.2395 13.21830469    12
ONEWEB-0532             
1 55140C 23004A   23178.53525877 -.00928350  00000-0 -14926+1 0  1787
2 55140  87.7615 221.6401 0000690 235.8458 279.4583 13.49655581    13
ONEWEB-0533             
1 55141C 23004B   23178.75572174 -.00001689  00000-0 -54682-3 0  1787
2 55141  86.8391 217.2378 0003411  49.8975  19.3103 14.39175086    16
ONEWEB-0541             
1 55142C 23004C   23178.54633516  .00003430  00000-0  78420-2 0  1782
2 55142  88.0382 236.6304 0002125 110.8362 324.2124 13.25750594    13
ONEWEB-0543             
1 55143C 23004D   23178.73105738 -.00001606  00000-0 -29366-3 0  1785
2 55143  86.6273 215.1439 0003789  42.9024  21.2956 14.66046370    18
ONEWEB-0544             
1 55144C 23004E   23178.73800183 -.00001699  00000-0 -31075-3 0  1784
2 55144  86.6295 215.0669 0002871  73.6419 359.7395 14.66026483    16
ONEWEB-0560             
1 55145C 23004F   23178.73178655 -.00001583  00000-0 -28941-3 0  1787
2 55145  86.6310 215.0946 0001774  66.7151 357.5321 14.66051217    18
ONEWEB-0565             
1 55146C 23004G   23178.57202961  .00004474  00000-0  81891-3 0  1781
2 55146  86.6291 215.0805 0002680  65.8804  26.2667 14.65990076    10
ONEWEB-0567             
1 55147C 23004H   23178.57896248  .00004506  00000-0  82376-3 0  1784
2 55147  86.6290 215.0874 0005018  46.1187  30.0227 14.66039390    19
ONEWEB-0569             
1 55148C 23004J   23178.49355738  .00005403  00000-0  98931-3 0  1781
2 55148  86.5341 214.9118 0004548  63.8638  21.8013 14.65968357    13
ONEWEB-0570             
1 55149C 23004K   23178.74114998 -.00001576  00000-0 -28714-3 0  1782
2 55149  86.6266 215.0349 0003186  73.0532 351.4939 14.66214628    17
ONEWEB-0571             
1 55150C 23004L   23178.59044396  .00003294  00000-0  60218-3 0  1783
2 55150  86.6312 215.1475 0003457  49.2262  28.9054 14.66045235    18
ONEWEB-0572             
1 55151C 23004M   23178.49632359 -.00948266  00000-0 -16545+1 0  1785
2 55151  87.7859 221.6198 0003096  59.2801 271.3879 13.44442544    18
ONEWEB-0573             
1 55152C 23004N   23178.76266618 -.00001002  00000-0 -18347-3 0  1780
2 55152  86.6279 215.0794 0003355  58.2421   6.5191 14.65977074    17
ONEWEB-0588             
1 55153C 23004P   23178.73903192 -.00001675  00000-0 -30632-3 0  1780
2 55153  86.6275 215.1531 0005370  38.4221  33.8409 14.66036839    12
ONEWEB-0598             
1 55154C 23004Q   23178.75331433 -.00002822  00000-0 -65711-2 0  1786
2 55154  87.9423 236.7718 0002309 111.5821 337.9945 13.24542790    10
ONEWEB-0599             
1 55155C 23004R   23178.48838377 -.00981766  00000-0 -16487+1 0  1783
2 55155  87.7710 221.6408 0013714  24.9836  52.4928 13.46896366    17
ONEWEB-0614             
1 55156C 23004S   23178.53174769  .00002286  00000-0  53319-2 0  1784
2 55156  87.9429 236.8079 0002390 105.6197 327.6507 13.24425603    12
ONEWEB-0616             
1 55157C 23004T   23178.52757359 -.00825150  00000-0 -10705+1 0  1781
2 55157  87.6046 220.0434 0013360  28.9710  44.4941 13.62955383    13
ONEWEB-0617             
1 55158C 23004U   23178.72935600 -.00001208  00000-0 -28150-2 0  1786
2 55158  87.9434 236.7793 0003231 101.7005 318.5351 13.24480471    12
ONEWEB-0618             
1 55159C 23004V   23178.74389303 -.00002202  00000-0 -91355-3 0  1785
2 55159  86.9101 219.1678 0013356   6.5667  55.6669 14.26597986    19
ONEWEB-0619             
1 55160C 23004W   23178.44150877 -.00954867  00000-0 -14279+1 0  1786
2 55160  87.7124 221.8013 0014477  40.0280 344.4793 13.54227952    17
ONEWEB-0620             
1 55161C 23004X   23178.48591435  .00002844  00000-0  66194-2 0  1782
2 55161  87.9417 236.8248 0002183 103.4106 332.8882 13.24553532    16
ONEWEB-0621             
1 55162C 23004Y   23178.57136988  .00004122  00000-0  73813-2 0  1788
2 55162  87.7031 238.2428 0012555  66.9077  15.1545 13.41777569    11
ONEWEB-0622             
1 55163C 23004Z   23178.48347637  .00002781  00000-0  78572-2 0  1780
2 55163  87.8836 236.8000 0003138 112.2710 319.0918 13.11416883    18
ONEWEB-0623             
1 55164C 23004AA  23178.34810600 -.00928315  00000-0 -13818+1 0  1783
2 55164  87.7161 221.8520 0013570  28.7211 311.3212 13.54497761    11
ONEWEB-0624             
1 55165C 23004AB  23178.75015046 -.00001567  00000-0 -28622-3 0  1783
2 55165  86.6317 215.0154 0005265 100.5389 334.1419 14.66073048    12
ONEWEB-0625             
1 55166C 23004AC  23178.70921711 -.00942045  00000-0 -13628+1 0  1786
2 55166  87.6905 221.7999 0012161  26.2621 122.8648 13.56309013    12
ONEWEB-0626             
1 55167C 23004AD  23178.47724951 -.00877639  00000-0 -12801+1 0  1786
2 55167  87.6900 221.8133 0016659  52.4180 313.0016 13.55707005    11
ONEWEB-0627             
1 55168C 23004AE  23178.70292824 -.00925637  00000-0 -14602+1 0  1785
2 55168  87.7486 221.7144 0002791 107.4513  39.7455 13.50859786    14
ONEWEB-0628             
1 55169C 23004AF  23178.56090692  .00004207  00000-0  77081-3 0  1781
2 55169  86.6315 215.1160 0006101  51.8569  26.1210 14.65932351    17
ONEWEB-0629             
1 55170C 23004AG  23178.50468007 -.00859698  00000-0 -12119+1 0  1788
2 55170  87.6676 221.8508 0014877  37.9725  39.0102 13.57831091    10
ONEWEB-0631             
1 55171C 23004AH  23178.57274720  .00004434  00000-0  81168-3 0  1784
2 55171  86.6306 215.1137 0003983  78.0921  16.5102 14.65984828    11
